SAR-LUPE 2              
1 31797U 07030A   26198.70943265  .00004482  00000+0  70946-4 0  9996
2 31797  98.1067 307.0352 0004963 211.1335 148.9623 15.54085503 61677
SAPPHIRE                
1 39088U 13009C   26198.69693449  .00000028  00000+0  24852-4 0  9991
2 39088  98.4277  17.4305 0011733 152.7929 207.3874 14.35247952700951
PRAETORIAN SDA_602      
1 65565U 25203A   26198.67654144  .00000040  00000+0  25148-4 0  9999
2 65565  81.3047 342.5393 0007114 111.9061 248.2852 13.83888067 42912
PRAETORIAN SDA_603      
1 65566U 25203B   26198.63239825  .00000167  00000+0  13951-3 0  9999
2 65566  81.3058 342.5007 0010816 110.2134 250.0187 13.83961131 42919
PRAETORIAN SDA_604      
1 65567U 25203C   26198.38219625  .00000042  00000+0  27106-4 0  9998
2 65567  81.3069 343.1926 0006620 116.3385 243.8452 13.83050256 42857
PRAETORIAN SDA_605      
1 65568U 25203D   26198.63099001  .00000051  00000+0  35431-4 0  9991
2 65568  81.3034 342.6018 0009363 107.4343 252.7838 13.83200295 42901
PRAETORIAN SDA_606      
1 65569U 25203E   26198.39915742  .00000025  00000+0  11756-4 0  9999
2 65569  81.3070 343.0552 0007213 111.0284 249.1644 13.83200147 42863
PRAETORIAN SDA_607      
1 65570U 25203F   26198.38862692  .00000106  00000+0  84666-4 0  9995
2 65570  81.3053 342.6828 0010005 109.4264 250.7974 13.83758693 42889
PRAETORIAN SDA_608      
1 65571U 25203G   26198.66026736  .00000045  00000+0  30163-4 0  9993
2 65571  81.3023 342.5939 0007124 114.4979 245.6921 13.83819620 42902
PRAETORIAN SDA_609      
1 65572U 25203H   26198.65654863  .00000091  00000+0  70640-4 0  9996
2 65572  81.3065 342.5755 0007914 109.2649 250.9364 13.84210905 42911
PRAETORIAN SDA_610      
1 65573U 25203J   26197.84718140  .00000059  00000+0  42780-4 0  9994
2 65573  81.3023 343.3104 0007831 115.8235 244.3730 13.83528361 42792
PRAETORIAN SDA_611      
1 65574U 25203K   26198.65197872  .00000116  00000+0  94484-4 0  9990
2 65574  81.3034 342.7493 0006725 118.1880 241.9956 13.83310676 42894
PRAETORIAN SDA_612      
1 65575U 25203L   26198.38685935  .00000154  00000+0  12531-3 0  9997
2 65575  81.3043 342.5066 0010410 109.7248 250.5033 13.85041262 42895
PRAETORIAN SDA_613      
1 65576U 25203M   26198.38126083  .00000040  00000+0  25834-4 0  9997
2 65576  81.3015 343.0201 0006811 109.9923 250.1967 13.82767829 42853
PRAETORIAN SDA_614      
1 65577U 25203N   26198.38174174  .00000035  00000+0  20260-4 0  9994
2 65577  81.3030 342.5968 0008256 108.0954 252.1103 13.84778719 42894
PRAETORIAN SDA_615      
1 65578U 25203P   26198.65514058  .00000134  00000+0  10934-3 0  9990
2 65578  81.3038 342.3266 0010158 107.6489 252.5778 13.84438565 42922
PRAETORIAN SDA_616      
1 65579U 25203Q   26198.65209950  .00000088  00000+0  69560-4 0  9991
2 65579  81.3078 342.9149 0006609 116.3399 243.8437 13.83270398 42894
PRAETORIAN SDA_617      
1 65580U 25203R   26198.67630306  .00000043  00000+0  28218-4 0  9994
2 65580  81.3053 342.7208 0008514 107.7526 252.4559 13.83152305 42906
PRAETORIAN SDA_618      
1 65581U 25203S   26198.40601869  .00000089  00000+0  69100-4 0  9993
2 65581  81.3034 342.4897 0010892 111.5888 248.6430 13.84225761 42894
PRAETORIAN SDA_619      
1 65582U 25203T   26198.67100965  .00000111  00000+0  89018-4 0  9990
2 65582  81.3062 342.5748 0009305 108.3843 251.8326 13.83806028 43547
PRAETORIAN SDA_620      
1 65583U 25203U   26198.34550257  .00000181  00000+0  15383-3 0  9998
2 65583  81.3046 342.9102 0008623 106.1383 254.0723 13.83207725 42864
PRAETORIAN SDA_621      
1 65584U 25203V   26198.67285043  .00000035  00000+0  21164-4 0  9996
2 65584  81.3036 342.5049 0008510 103.1050 257.1057 13.83803919 42910
PRAETORIAN SDA_601      
1 65585U 25203W   26197.50004397 -.00000122  00000+0 -12251-3 0  9994
2 65585  81.3062 343.9197 0006545 122.0492 238.1300 13.83169206 42739
VICTUS HAZE PUMA        
1 69646U 26142A   26198.28484869  .00002209  00000+0  10157-3 0  9990
2 69646  97.4460  95.5636 0026410 259.4735 100.3525 15.21130484  4240
