OBJECT_NAME,OBJECT_ID,EPOCH,MEAN_MOTION,ECCENTRICITY,INCLINATION,RA_OF_ASC_NODE,ARG_OF_PERICENTER,MEAN_ANOMALY,EPHEMERIS_TYPE,CLASSIFICATION_TYPE,NORAD_CAT_ID,ELEMENT_SET_NO,REV_AT_EPOCH,BSTAR,MEAN_MOTION_DOT,MEAN_MOTION_DDOT
SAR-LUPE 2,2007-030A,2026-07-17T17:01:34.980960,15.54085503,.0004963,98.1067,307.0352,211.1335,148.9623,0,U,31797,999,6167,.70946E-4,.4482E-4,0
SAPPHIRE,2013-009C,2026-07-17T16:43:35.139936,14.35247952,.0011733,98.4277,17.4305,152.7929,207.3874,0,U,39088,999,70095,.24852E-4,.28E-6,0
PRAETORIAN SDA_602,2025-203A,2026-07-17T16:14:13.180416,13.83888067,.0007114,81.3047,342.5393,111.9061,248.2852,0,U,65565,999,4291,.25148E-4,.4E-6,0
PRAETORIAN SDA_603,2025-203B,2026-07-17T15:10:39.208800,13.83961131,.0010816,81.3058,342.5007,110.2134,250.0187,0,U,65566,999,4291,.13951E-3,.167E-5,0
PRAETORIAN SDA_604,2025-203C,2026-07-17T09:10:21.756000,13.83050256,.000662,81.3069,343.1926,116.3385,243.8452,0,U,65567,999,4285,.27106E-4,.42E-6,0
PRAETORIAN SDA_605,2025-203D,2026-07-17T15:08:37.536864,13.83200295,.0009363,81.3034,342.6018,107.4343,252.7838,0,U,65568,999,4290,.35431E-4,.51E-6,0
PRAETORIAN SDA_606,2025-203E,2026-07-17T09:34:47.201088,13.83200147,.0007213,81.3070,343.0552,111.0284,249.1644,0,U,65569,999,4286,.11756E-4,.25E-6,0
PRAETORIAN SDA_607,2025-203F,2026-07-17T09:19:37.365888,13.83758693,.0010005,81.3053,342.6828,109.4264,250.7974,0,U,65570,999,4288,.84666E-4,.106E-5,0
PRAETORIAN SDA_608,2025-203G,2026-07-17T15:50:47.099904,13.83819620,.0007124,81.3023,342.5939,114.4979,245.6921,0,U,65571,999,4290,.30163E-4,.45E-6,0
PRAETORIAN SDA_609,2025-203H,2026-07-17T15:45:25.801632,13.84210905,.0007914,81.3065,342.5755,109.2649,250.9364,0,U,65572,999,4291,.7064E-4,.91E-6,0
PRAETORIAN SDA_610,2025-203J,2026-07-16T20:19:56.472960,13.83528361,.00078314,81.3023,343.3104,115.8235,244.3730,0,U,65573,999,4279,.42780455E-4,.59E-6,0
PRAETORIAN SDA_611,2025-203K,2026-07-17T15:38:50.961408,13.83310676,.0006725,81.3034,342.7493,118.1880,241.9956,0,U,65574,999,4289,.94484E-4,.116E-5,0
PRAETORIAN SDA_612,2025-203L,2026-07-17T09:17:04.647840,13.85041262,.001041,81.3043,342.5066,109.7248,250.5033,0,U,65575,999,4289,.12531E-3,.154E-5,0
PRAETORIAN SDA_613,2025-203M,2026-07-17T09:09:00.935712,13.82767829,.0006811,81.3015,343.0201,109.9923,250.1967,0,U,65576,999,4285,.25834E-4,.4E-6,0
PRAETORIAN SDA_614,2025-203N,2026-07-17T09:09:42.486336,13.84778719,.0008256,81.3030,342.5968,108.0954,252.1103,0,U,65577,999,4289,.2026E-4,.35E-6,0
PRAETORIAN SDA_615,2025-203P,2026-07-17T15:43:24.146112,13.84438565,.0010158,81.3038,342.3266,107.6489,252.5778,0,U,65578,999,4292,.10934E-3,.134E-5,0
PRAETORIAN SDA_616,2025-203Q,2026-07-17T15:39:01.396800,13.83270398,.0006609,81.3078,342.9149,116.3399,243.8437,0,U,65579,999,4289,.6956E-4,.88E-6,0
PRAETORIAN SDA_617,2025-203R,2026-07-17T16:13:52.584384,13.83152305,.0008514,81.3053,342.7208,107.7526,252.4559,0,U,65580,999,4290,.28218E-4,.43E-6,0
PRAETORIAN SDA_618,2025-203S,2026-07-17T09:44:40.014816,13.84225761,.0010892,81.3034,342.4897,111.5888,248.6430,0,U,65581,999,4289,.691E-4,.89E-6,0
PRAETORIAN SDA_619,2025-203T,2026-07-17T16:06:15.233760,13.83806028,.0009305,81.3062,342.5748,108.3843,251.8326,0,U,65582,999,4354,.89018E-4,.111E-5,0
PRAETORIAN SDA_620,2025-203U,2026-07-17T08:17:31.422048,13.83207725,.0008623,81.3046,342.9102,106.1383,254.0723,0,U,65583,999,4286,.15383E-3,.181E-5,0
PRAETORIAN SDA_621,2025-203V,2026-07-17T16:08:54.277152,13.83803919,.000851,81.3036,342.5049,103.1050,257.1057,0,U,65584,999,4291,.21164E-4,.35E-6,0
PRAETORIAN SDA_601,2025-203W,2026-07-16T12:00:03.799008,13.83169206,.0006545,81.3062,343.9197,122.0492,238.1300,0,U,65585,999,4273,-.12251E-3,-.122E-5,0
VICTUS HAZE PUMA,2026-142A,2026-07-17T06:50:10.926816,15.21130484,.002641,97.4460,95.5636,259.4735,100.3525,0,U,69646,999,424,.10157E-3,.2209E-4,0
